{"type": "FeatureCollection", "features": [ {"type": "Feature", "properties": {"norad_id": 30928, "name": "FENGYUN 1C DEB", "group": "fengyun-1c-debris", "lat": -22.67352729144403, "lon": 72.71020967155756, "alt_km": 1079.1776046744053, "timestamp": "2025-12-04T10:51:50.384992+00:00", "meta": {"OBJECT_NAME": "FENGYUN 1C DEB", "OBJECT_ID": "1999-025AZS", "EPOCH": "2025-12-02T04:48:04.904928", "MEAN_MOTION": 13.22221332, "ECCENTRICITY": 0.045112, "INCLINATION": 98.8836, "RA_OF_ASC_NODE": 67.0421, "ARG_OF_PERICENTER": 57.6478, "MEAN_ANOMALY": 7.5056, "EPHEMERIS_TYPE": 0, "CLASSIFICATION_TYPE": "U", "NORAD_CAT_ID": 30928, "ELEMENT_SET_NO": 999, "REV_AT_EPOCH": 90209, "BSTAR": 0.00088279603, "MEAN_MOTION_DOT": 5.96e-06, "MEAN_MOTION_DDOT": 0}, "tle": {"line1": "1 30928U 99025AZS 25336.20005677  .00000596  00000+0  88280-3 0  9991", "line2": "2 30928  98.8836  67.0421 0451120  57.6478   7.5056 13.22221332902090"}}, "geometry": {"type": "Point", "coordinates": [72.71020967155756, -22.67352729144403]}}, {"type": "Feature", "properties": {"norad_id": 30930, "name": "FENGYUN 1C DEB", "group": "fengyun-1c-debris", "lat": -65.7322889182339, "lon": 25.807105468904513, "alt_km": 848.8022903716546, "timestamp": "2025-12-04T10:51:50.385002+00:00", "meta": {"OBJECT_NAME": "FENGYUN 1C DEB", "OBJECT_ID": "1999-025AZU", "EPOCH": "2025-12-02T07:40:45.179040", "MEAN_MOTION": 14.37352769, "ECCENTRICITY": 0.0109503, "INCLINATION": 98.2165, "RA_OF_ASC_NODE": 5.0765, "ARG_OF_PERICENTER": 137.3637, "MEAN_ANOMALY": 286.006, "EPHEMERIS_TYPE": 0, "CLASSIFICATION_TYPE": "U", "NORAD_CAT_ID": 30930, "ELEMENT_SET_NO": 999, "REV_AT_EPOCH": 98182, "BSTAR": 0.00047615, "MEAN_MOTION_DOT": 1.481e-05, "MEAN_MOTION_DDOT": 0}, "tle": {"line1": "1 30930U 99025AZU 25336.31996735  .00001481  00000+0  47615-3 0  9991", "line2": "2 30930  98.2165   5.0765 0109503 137.3637 286.0060 14.37352769981826"}}, "geometry": {"type": "Point", "coordinates": [25.807105468904513, -65.7322889182339]}}, {"type": "Feature", "properties": {"norad_id": 30931, "name": "FENGYUN 1C DEB", "group": "fengyun-1c-debris", "lat": 62.92069017580881, "lon": -125.62995546085939, "alt_km": 839.5836127279745, "timestamp": "2025-12-04T10:51:50.385012+00:00", "meta": {"OBJECT_NAME": "FENGYUN 1C DEB", "OBJECT_ID": "1999-025AZV", "EPOCH": "2025-12-02T03:47:35.105280", "MEAN_MOTION": 14.01483755, "ECCENTRICITY": 0.00934004, "INCLINATION": 99.1741, "RA_OF_ASC_NODE": 33.6379, "ARG_OF_PERICENTER": 70.6138, "MEAN_ANOMALY": 353.2512, "EPHEMERIS_TYPE": 0, "CLASSIFICATION_TYPE": "U", "NORAD_CAT_ID": 30931, "ELEMENT_SET_NO": 999, "REV_AT_EPOCH": 95777, "BSTAR": 0.00063376382, "MEAN_MOTION_DOT": 9.5e-06, "MEAN_MOTION_DDOT": 0}, "tle": {"line1": "1 30931U 99025AZV 25336.15804520  .00000950  00000+0  63376-3 0  9996", "line2": "2 30931  99.1741  33.6379 0093400  70.6138 353.2512 14.01483755957775"}}, "geometry": {"type": "Point", "coordinates": [-125.62995546085939, 62.92069017580881]}}, {"type": "Feature", "properties": {"norad_id": 30932, "name": "FENGYUN 1C DEB", "group": "fengyun-1c-debris", "lat": 13.06479388343147, "lon": -90.87787768128337, "alt_km": 779.8272835687458, "timestamp": "2025-12-04T10:51:50.385022+00:00", "meta": {"OBJECT_NAME": "FENGYUN 1C DEB", "OBJECT_ID": "1999-025AZW", "EPOCH": "2025-12-04T02:23:11.217696", "MEAN_MOTION": 14.26611762, "ECCENTRICITY": 0.0059489, "INCLINATION": 98.9091, "RA_OF_ASC_NODE": 270.8488, "ARG_OF_PERICENTER": 318.7203, "MEAN_ANOMALY": 40.9487, "EPHEMERIS_TYPE": 0, "CLASSIFICATION_TYPE": "U", "NORAD_CAT_ID": 30932, "ELEMENT_SET_NO": 999, "REV_AT_EPOCH": 96271, "BSTAR": 0.0062546, "MEAN_MOTION_DOT": 0.00015374, "MEAN_MOTION_DDOT": 0}, "tle": {"line1": "1 30932U 99025AZW 25338.09943539  .00015374  00000+0  62546-2 0  9999", "line2": "2 30932  98.9091 270.8488 0059489 318.7203  40.9487 14.26611762962714"}}, "geometry": {"type": "Point", "coordinates": [-90.87787768128337, 13.06479388343147]}}, {"type": "Feature", "properties": {"norad_id": 30933, "name": "FENGYUN 1C DEB", "group": "fengyun-1c-debris", "lat": -14.292464322546929, "lon": -37.140193014296166, "alt_km": 720.2756443361359, "timestamp": "2025-12-04T10:51:50.385033+00:00", "meta": {"OBJECT_NAME": "FENGYUN 1C DEB", "OBJECT_ID": "1999-025AZX", "EPOCH": "2025-12-04T04:31:29.278848", "MEAN_MOTION": 14.36057313, "ECCENTRICITY": 0.0078045, "INCLINATION": 99.0464, "RA_OF_ASC_NODE": 320.2566, "ARG_OF_PERICENTER": 347.1732, "MEAN_ANOMALY": 73.7266, "EPHEMERIS_TYPE": 0, "CLASSIFICATION_TYPE": "U", "NORAD_CAT_ID": 30933, "ELEMENT_SET_NO": 999, "REV_AT_EPOCH": 95749, "BSTAR": 0.012443, "MEAN_MOTION_DOT": 0.00037633, "MEAN_MOTION_DDOT": 0}, "tle": {"line1": "1 30933U 99025AZX 25338.18853332  .00037633  00000+0  12443-1 0  9993", "line2": "2 30933  99.0464 320.2566 0078045 347.1732  73.7266 14.36057313957495"}}, "geometry": {"type": "Point", "coordinates": [-37.140193014296166, -14.292464322546929]}}, {"type": "Feature", "properties": {"norad_id": 30934, "name": "FENGYUN 1C DEB", "group": "fengyun-1c-debris", "lat": 70.30937655937727, "lon": -169.07316677449825, "alt_km": 856.2624512569946, "timestamp": "2025-12-04T10:51:50.385043+00:00", "meta": {"OBJECT_NAME": "FENGYUN 1C DEB", "OBJECT_ID": "1999-025AZY", "EPOCH": "2025-12-03T22:02:03.056352", "MEAN_MOTION": 13.46704859, "ECCENTRICITY": 0.0340032, "INCLINATION": 98.7655, "RA_OF_ASC_NODE": 215.9965, "ARG_OF_PERICENTER": 103.98, "MEAN_ANOMALY": 259.9387, "EPHEMERIS_TYPE": 0, "CLASSIFICATION_TYPE": "U", "NORAD_CAT_ID": 30934, "ELEMENT_SET_NO": 999, "REV_AT_EPOCH": 91589, "BSTAR": 0.0024901, "MEAN_MOTION_DOT": 2.105e-05, "MEAN_MOTION_DDOT": 0}, "tle": {"line1": "1 30934U 99025AZY 25337.91809093  .00002105  00000+0  24901-2 0  9998", "line2": "2 30934  98.7655 215.9965 0340032 103.9800 259.9387 13.46704859915893"}}, "geometry": {"type": "Point", "coordinates": [-169.07316677449825, 70.30937655937727]}}, {"type": "Feature", "properties": {"norad_id": 30936, "name": "FENGYUN 1C DEB", "group": "fengyun-1c-debris", "lat": -16.520736149457424, "lon": 12.026900381001756, "alt_km": 789.5676348024581, "timestamp": "2025-12-04T10:51:50.385054+00:00", "meta": {"OBJECT_NAME": "FENGYUN 1C DEB", "OBJECT_ID": "1999-025BAA", "EPOCH": "2025-12-03T08:31:11.879904", "MEAN_MOTION": 14.23338308, "ECCENTRICITY": 0.00460882, "INCLINATION": 98.5827, "RA_OF_ASC_NODE": 8.3891, "ARG_OF_PERICENTER": 318.6028, "MEAN_ANOMALY": 163.2671, "EPHEMERIS_TYPE": 0, "CLASSIFICATION_TYPE": "U", "NORAD_CAT_ID": 30936, "ELEMENT_SET_NO": 999, "REV_AT_EPOCH": 96999, "BSTAR": 0.00071520122, "MEAN_MOTION_DOT": 1.596e-05, "MEAN_MOTION_DDOT": 0}, "tle": {"line1": "1 30936U 99025BAA 25337.35499861  .00001596  00000+0  71520-3 0  9999", "line2": "2 30936  98.5827   8.3891 0046088 318.6028 163.2671 14.23338308969998"}}, "geometry": {"type": "Point", "coordinates": [12.026900381001756, -16.520736149457424]}}, {"type": "Feature", "properties": {"norad_id": 30937, "name": "FENGYUN 1C DEB", "group": "fengyun-1c-debris", "lat": -75.90753330648528, "lon": 70.5519567366791, "alt_km": 966.4330590094405, "timestamp": "2025-12-04T10:51:50.385064+00:00", "meta": {"OBJECT_NAME": "FENGYUN 1C DEB", "OBJECT_ID": "1999-025BAB", "EPOCH": "2025-12-04T02:54:01.914336", "MEAN_MOTION": 13.95582606, "ECCENTRICITY": 0.0075927, "INCLINATION": 99.0902, "RA_OF_ASC_NODE": 30.6018, "ARG_OF_PERICENTER": 76.5734, "MEAN_ANOMALY": 338.4888, "EPHEMERIS_TYPE": 0, "CLASSIFICATION_TYPE": "U", "NORAD_CAT_ID": 30937, "ELEMENT_SET_NO": 999, "REV_AT_EPOCH": 95596, "BSTAR": 3.1421e-05, "MEAN_MOTION_DOT": 0, "MEAN_MOTION_DDOT": 0}, "tle": {"line1": "1 30937U 99025BAB 25338.12085549  .00000000  00000+0  31421-4 0  9996", "line2": "2 30937  99.0902  30.6018 0075927  76.5734 338.4888 13.95582606955964"}}, "geometry": {"type": "Point", "coordinates": [70.5519567366791, -75.90753330648528]}}, {"type": "Feature", "properties": {"norad_id": 30938, "name": "FENGYUN 1C DEB", "group": "fengyun-1c-debris", "lat": 1.6906613959449577, "lon": -8.066016809146408, "alt_km": 795.4764414820502, "timestamp": "2025-12-04T10:51:50.385074+00:00", "meta": {"OBJECT_NAME": "FENGYUN 1C DEB", "OBJECT_ID": "1999-025BAC", "EPOCH": "2025-12-04T01:00:54.791712", "MEAN_MOTION": 14.19798665, "ECCENTRICITY": 0.004639, "INCLINATION": 98.5911, "RA_OF_ASC_NODE": 351.7914, "ARG_OF_PERICENTER": 8.9639, "MEAN_ANOMALY": 56.6116, "EPHEMERIS_TYPE": 0, "CLASSIFICATION_TYPE": "U", "NORAD_CAT_ID": 30938, "ELEMENT_SET_NO": 999, "REV_AT_EPOCH": 96996, "BSTAR": 0.00064416, "MEAN_MOTION_DOT": 1.337e-05, "MEAN_MOTION_DDOT": 0}, "tle": {"line1": "1 30938U 99025BAC 25338.04230083  .00001337  00000+0  64416-3 0  9996", "line2": "2 30938  98.5911 351.7914 0046390   8.9639  56.6116 14.19798665969965"}}, "geometry": {"type": "Point", "coordinates": [-8.066016809146408, 1.6906613959449577]}}, {"type": "Feature", "properties": {"norad_id": 30940, "name": "FENGYUN 1C DEB", "group": "fengyun-1c-debris", "lat": -81.3242637354092, "lon": 75.26088840759904, "alt_km": 886.5474391619618, "timestamp": "2025-12-04T10:51:50.385084+00:00", "meta": {"OBJECT_NAME": "FENGYUN 1C DEB", "OBJECT_ID": "1999-025BAE", "EPOCH": "2025-11-23T13:17:29.751648", "MEAN_MOTION": 14.0826145, "ECCENTRICITY": 0.004197, "INCLINATION": 98.622, "RA_OF_ASC_NODE": 328.746, "ARG_OF_PERICENTER": 57.4359, "MEAN_ANOMALY": 68.2923, "EPHEMERIS_TYPE": 0, "CLASSIFICATION_TYPE": "U", "NORAD_CAT_ID": 30940, "ELEMENT_SET_NO": 999, "REV_AT_EPOCH": 95862, "BSTAR": 0.00040929136, "MEAN_MOTION_DOT": 6.64e-06, "MEAN_MOTION_DDOT": 0}, "tle": {"line1": "1 30940U 99025BAE 25327.55381657  .00000664  00000+0  40929-3 0  9992", "line2": "2 30940  98.6220 328.7460 0041970  57.4359  68.2923 14.08261450958620"}}, "geometry": {"type": "Point", "coordinates": [75.26088840759904, -81.3242637354092]}}]}